0 THORAD AGENA D DEB
1 17658U 69082KU  13282.61387242  .00000312  00000-0  26797-3 0  2770
2 17658 070.3556 122.8799 0056818 133.4330 286.8000 13.94363456925080
0 THORAD AGENA D DEB
1 17658U 69082KU  13286.21177436  .00000308  00000-0  26540-3 0  2795
2 17658 070.3555 115.3398 0056697 128.3692 347.4072 13.94366478925585
0 THORAD AGENA D DEB
1 17658U 69082KU  13288.85573038  .00000412  00000-0  34235-3 0  2803
2 17658 070.3558 109.7988 0056576 124.6571 299.4544 13.94369328925959
0 THORAD AGENA D DEB
1 17658U 69082KU  13290.86510683  .00000383  00000-0  32062-3 0  2818
2 17658 070.3561 105.5877 0056505 121.8424 306.0682 13.94371360926231
0 THORAD AGENA D DEB
1 17658U 69082KU  13292.16525586  .00000416  00000-0  34519-3 0  2828
2 17658 070.3564 102.8629 0056459 119.9706 352.5795 13.94372347926415
0 THORAD AGENA D DEB
1 17658U 69082KU  13293.89468759  .00000479  00000-0  39190-3 0  2837
2 17658 070.3566 099.2391 0056389 117.6073 033.8973 13.94373942926651
0 THORAD AGENA D DEB
1 17658U 69082KU  13295.52836035  .00000499  00000-0  40634-3 0  2843
2 17658 070.3566 095.8152 0056335 115.2588 314.6506 13.94375893926888
